[
    {
        "name": "Thành phố Hà Nội",
        "code": 1,
        "division_type": "thành phố trung ương",
        "codename": "thanh_pho_ha_noi",
        "phone_code": 24,
        "thumbnail": "https://dulichkhampha24.com/wp-content/uploads/2020/01/gioi-thieu-ve-ha-noi-1.jpg",
        "districts": [],
        "numberBooking": 821
    },
    {
        "name": "Thành phố Hồ Chí Minh",
        "code": 79,
        "division_type": "thành phố trung ương",
        "codename": "thanh_pho_ho_chi_minh",
        "phone_code": 28,
        "districts": [],
        "thumbnail": "https://cdnmedia.baotintuc.vn/Upload/c2tvplmdloSDblsn03qN2Q/files/2020/11/04/thanh-pho-thu-duc-tp-ho-chi-minh-41120.jpg",
        "numberBooking": 999
    },
    {
        "name": "Thành phố Đà Nẵng",
        "code": 48,
        "division_type": "thành phố trung ương",
        "codename": "thanh_pho_da_nang",
        "phone_code": 236,
        "districts": [],
        "thumbnail": "https://hodadi.s3.amazonaws.com/production/blogs/pictures/000/000/028/original/du-lich-da-nang.jpg?1501897690",
        "numberBooking": 732
    },
    {
        "name": "Tỉnh Bà Rịa - Vũng Tàu",
        "code": 77,
        "division_type": "tỉnh",
        "codename": "tinh_ba_ria_vung_tau",
        "phone_code": 254,
        "districts": [],
        "thumbnail": "https://bazantravel.com/cdn/medias/uploads/61/61043-thanh-pho-vung-tau-700x383.jpg",
        "numberBooking": 632
    },
    {
        "name": "Thành phố Hải Phòng",
        "code": 31,
        "division_type": "thành phố trung ương",
        "codename": "thanh_pho_hai_phong",
        "phone_code": 225,
        "districts": [],
        "thumbnail": "https://bcp.cdnchinhphu.vn/334894974524682240/2023/12/3/6c2a27c4e9d617884ec7-1458d2ddfe164132b95ec163ccc8e4ea-1701595864429488932869.jpg",
        "numberBooking": 601
    },
    {
        "name": "Tỉnh Bình Thuận",
        "code": 60,
        "division_type": "tỉnh",
        "codename": "tinh_binh_thuan",
        "phone_code": 252,
        "districts": [],
        "thumbnail": "https://static.vinwonders.com/production/dia-diem-du-lich-phan-thiet-1.jpg",
        "numberBooking": 543
    }, 
    {
        "name": "Tỉnh Thừa Thiên Huế",
        "code": 46,
        "division_type": "tỉnh",
        "codename": "tinh_thua_thien_hue",
        "phone_code": 234,
        "districts": [],
        "thumbnail": "https://images.baodantoc.vn/uploads/2021/Th%C3%A1ng%206/Ng%C3%A0y_11/Thanh/camnhi.jpg",
        "numberBooking": 435
    },
    {
        "name": "Tỉnh Bến Tre",
        "code": 83,
        "division_type": "tỉnh",
        "codename": "tinh_ben_tre",
        "phone_code": 275,
        "districts": [],
        "thumbnail": "https://phuotvivu.com/blog/wp-content/uploads/2021/06/b%E1%BA%BFn-tre.jpg"
    },
    {
        "name": "Tỉnh Hà Giang",
        "code": 2,
        "division_type": "tỉnh",
        "codename": "tinh_ha_giang",
        "phone_code": 219,
        "districts": [],
        "thumbnail": "https://image.nhandan.vn/w800/Files/Images/2021/02/03/A281-1612343411587.jpg.webp",
        "numberBooking": 213
        
    },
    {
        "name": "Tỉnh Cao Bằng",
        "code": 4,
        "division_type": "tỉnh",
        "codename": "tinh_cao_bang",
        "phone_code": 206,
        "districts": [],
        "thumbnail": "https://raw.githubusercontent.com/ThaiHaiDev/StoreImage/main/province/caobang.jpg",
        "numberBooking": 213
    },
    {
        "name": "Tỉnh Bắc Kạn",
        "code": 6,
        "division_type": "tỉnh",
        "codename": "tinh_bac_kan",
        "phone_code": 209,
        "districts": [],
        "thumbnail": "https://raw.githubusercontent.com/ThaiHaiDev/StoreImage/main/province/backan.jpg",
        "numberBooking": 532
    },
    {
        "name": "Tỉnh Tuyên Quang",
        "code": 8,
        "division_type": "tỉnh",
        "codename": "tinh_tuyen_quang",
        "phone_code": 207,
        "districts": [],
        "thumbnail": "https://raw.githubusercontent.com/ThaiHaiDev/StoreImage/main/province/tuyenquang.jpg",
        "numberBooking": 234
    },
    {
        "name": "Tỉnh Lào Cai",
        "code": 10,
        "division_type": "tỉnh",
        "codename": "tinh_lao_cai",
        "phone_code": 214,
        "districts": [],
        "thumbnail": "https://raw.githubusercontent.com/ThaiHaiDev/StoreImage/main/province/laocai.jpg",
        "numberBooking": 653
    },
    {
        "name": "Tỉnh Điện Biên",
        "code": 11,
        "division_type": "tỉnh",
        "codename": "tinh_dien_bien",
        "phone_code": 215,
        "districts": [],
        "thumbnail": "https://raw.githubusercontent.com/ThaiHaiDev/StoreImage/main/province/dienbien.jpg",
        "numberBooking": 265
    },
    {
        "name": "Tỉnh Lai Châu",
        "code": 12,
        "division_type": "tỉnh",
        "codename": "tinh_lai_chau",
        "phone_code": 213,
        "districts": [],
        "thumbnail": "https://raw.githubusercontent.com/ThaiHaiDev/StoreImage/main/province/laichau.jpg",
        "numberBooking": 123
    },
    {
        "name": "Tỉnh Sơn La",
        "code": 14,
        "division_type": "tỉnh",
        "codename": "tinh_son_la",
        "phone_code": 212,
        "districts": [],
        "thumbnail": "https://raw.githubusercontent.com/ThaiHaiDev/StoreImage/main/province/sonla.jpg",
        "numberBooking": 443
    },
    {
        "name": "Tỉnh Yên Bái",
        "code": 15,
        "division_type": "tỉnh",
        "codename": "tinh_yen_bai",
        "phone_code": 216,
        "districts": [],
        "thumbnail": "https://raw.githubusercontent.com/ThaiHaiDev/StoreImage/main/province/yenbai.jpg",
        "numberBooking": 123
    },
    {
        "name": "Tỉnh Hoà Bình",
        "code": 17,
        "division_type": "tỉnh",
        "codename": "tinh_hoa_binh",
        "phone_code": 218,
        "districts": [],
        "thumbnail": "https://raw.githubusercontent.com/ThaiHaiDev/StoreImage/main/province/hoabinh.jpg"
    },
    {
        "name": "Tỉnh Thái Nguyên",
        "code": 19,
        "division_type": "tỉnh",
        "codename": "tinh_thai_nguyen",
        "phone_code": 208,
        "districts": [],
        "thumbnail": "https://raw.githubusercontent.com/ThaiHaiDev/StoreImage/main/province/thainguyen.jpg"
    },
    {
        "name": "Tỉnh Lạng Sơn",
        "code": 20,
        "division_type": "tỉnh",
        "codename": "tinh_lang_son",
        "phone_code": 205,
        "districts": [],
        "thumbnail": "https://raw.githubusercontent.com/ThaiHaiDev/StoreImage/main/province/langson.jpg"
    },
    {
        "name": "Tỉnh Quảng Ninh",
        "code": 22,
        "division_type": "tỉnh",
        "codename": "tinh_quang_ninh",
        "phone_code": 203,
        "districts": [],
        "thumbnail": "https://raw.githubusercontent.com/ThaiHaiDev/StoreImage/main/province/quangninh.jpg"
    },
    {
        "name": "Tỉnh Bắc Giang",
        "code": 24,
        "division_type": "tỉnh",
        "codename": "tinh_bac_giang",
        "phone_code": 204,
        "districts": [],
        "thumbnail": "https://raw.githubusercontent.com/ThaiHaiDev/StoreImage/main/province/bacgiang.jpg"
    },
    {
        "name": "Tỉnh Phú Thọ",
        "code": 25,
        "division_type": "tỉnh",
        "codename": "tinh_phu_tho",
        "phone_code": 210,
        "districts": [],
        "thumbnail": "https://raw.githubusercontent.com/ThaiHaiDev/StoreImage/main/province/phutho.jpg"
    },
    {
        "name": "Tỉnh Vĩnh Phúc",
        "code": 26,
        "division_type": "tỉnh",
        "codename": "tinh_vinh_phuc",
        "phone_code": 211,
        "districts": [],
        "thumbnail": "https://raw.githubusercontent.com/ThaiHaiDev/StoreImage/main/province/vinhphuc.jpg"
    },
    {
        "name": "Tỉnh Bắc Ninh",
        "code": 27,
        "division_type": "tỉnh",
        "codename": "tinh_bac_ninh",
        "phone_code": 222,
        "districts": [],
        "thumbnail": "https://raw.githubusercontent.com/ThaiHaiDev/StoreImage/main/province/bacninh.jpg"
    },
    {
        "name": "Tỉnh Hải Dương",
        "code": 30,
        "division_type": "tỉnh",
        "codename": "tinh_hai_duong",
        "phone_code": 220,
        "districts": [],
        "thumbnail": "https://raw.githubusercontent.com/ThaiHaiDev/StoreImage/main/province/haiduong.jpg"
    },
 
    {
        "name": "Tỉnh Hưng Yên",
        "code": 33,
        "division_type": "tỉnh",
        "codename": "tinh_hung_yen",
        "phone_code": 221,
        "districts": [],
        "thumbnail": "https://raw.githubusercontent.com/ThaiHaiDev/StoreImage/main/province/hungyen.jpg"
    },
    {
        "name": "Tỉnh Thái Bình",
        "code": 34,
        "division_type": "tỉnh",
        "codename": "tinh_thai_binh",
        "phone_code": 227,
        "districts": [],
        "thumbnail": "https://raw.githubusercontent.com/ThaiHaiDev/StoreImage/main/province/thaibinh.jpg"
    },
    {
        "name": "Tỉnh Hà Nam",
        "code": 35,
        "division_type": "tỉnh",
        "codename": "tinh_ha_nam",
        "phone_code": 226,
        "districts": [],
        "thumbnail": "https://raw.githubusercontent.com/ThaiHaiDev/StoreImage/main/province/hanam.jpg"
    },
    {
        "name": "Tỉnh Nam Định",
        "code": 36,
        "division_type": "tỉnh",
        "codename": "tinh_nam_dinh",
        "phone_code": 228,
        "districts": [],
        "thumbnail": "https://raw.githubusercontent.com/ThaiHaiDev/StoreImage/main/province/namdinh.jpg"
    },
    {
        "name": "Tỉnh Ninh Bình",
        "code": 37,
        "division_type": "tỉnh",
        "codename": "tinh_ninh_binh",
        "phone_code": 229,
        "districts": [],
        "thumbnail": "https://raw.githubusercontent.com/ThaiHaiDev/StoreImage/main/province/ninhbinh.jpg"
    },
    {
        "name": "Tỉnh Thanh Hóa",
        "code": 38,
        "division_type": "tỉnh",
        "codename": "tinh_thanh_hoa",
        "phone_code": 237,
        "districts": [],
        "thumbnail": "https://raw.githubusercontent.com/ThaiHaiDev/StoreImage/main/province/thanhhoa.jpg"
    },
    {
        "name": "Tỉnh Nghệ An",
        "code": 40,
        "division_type": "tỉnh",
        "codename": "tinh_nghe_an",
        "phone_code": 238,
        "districts": [],
        "thumbnail": "https://raw.githubusercontent.com/ThaiHaiDev/StoreImage/main/province/nghean.jpg"
    },
    {
        "name": "Tỉnh Hà Tĩnh",
        "code": 42,
        "division_type": "tỉnh",
        "codename": "tinh_ha_tinh",
        "phone_code": 239,
        "districts": [],
        "thumbnail": "https://raw.githubusercontent.com/ThaiHaiDev/StoreImage/main/province/hatinh.jpg"
    },
    {
        "name": "Tỉnh Quảng Bình",
        "code": 44,
        "division_type": "tỉnh",
        "codename": "tinh_quang_binh",
        "phone_code": 232,
        "districts": [],
        "thumbnail": "https://raw.githubusercontent.com/ThaiHaiDev/StoreImage/main/province/quangbinh.jpg"
    },
    {
        "name": "Tỉnh Quảng Trị",
        "code": 45,
        "division_type": "tỉnh",
        "codename": "tinh_quang_tri",
        "phone_code": 233,
        "districts": [],
        "thumbnail": "https://raw.githubusercontent.com/ThaiHaiDev/StoreImage/main/province/quangtri.jpg"
    },
  
   
    {
        "name": "Tỉnh Quảng Nam",
        "code": 49,
        "division_type": "tỉnh",
        "codename": "tinh_quang_nam",
        "phone_code": 235,
        "districts": [],
        "thumbnail": "https://raw.githubusercontent.com/ThaiHaiDev/StoreImage/main/province/quangnam.jpg"
    },
    {
        "name": "Tỉnh Quảng Ngãi",
        "code": 51,
        "division_type": "tỉnh",
        "codename": "tinh_quang_ngai",
        "phone_code": 255,
        "districts": [],
        "thumbnail": "https://raw.githubusercontent.com/ThaiHaiDev/StoreImage/main/province/quangngai.jpg"
    },
    {
        "name": "Tỉnh Bình Định",
        "code": 52,
        "division_type": "tỉnh",
        "codename": "tinh_binh_dinh",
        "phone_code": 256,
        "districts": [],
        "thumbnail": "https://raw.githubusercontent.com/ThaiHaiDev/StoreImage/main/province/binhdinh.jpg"
    },
    {
        "name": "Tỉnh Phú Yên",
        "code": 54,
        "division_type": "tỉnh",
        "codename": "tinh_phu_yen",
        "phone_code": 257,
        "districts": [],
        "thumbnail": "https://raw.githubusercontent.com/ThaiHaiDev/StoreImage/main/province/phuyen.jpg"
    },
    {
        "name": "Tỉnh Khánh Hòa",
        "code": 56,
        "division_type": "tỉnh",
        "codename": "tinh_khanh_hoa",
        "phone_code": 258,
        "districts": [],
        "thumbnail": "https://raw.githubusercontent.com/ThaiHaiDev/StoreImage/main/province/khanhhoa.jpg"
    },
    {
        "name": "Tỉnh Ninh Thuận",
        "code": 58,
        "division_type": "tỉnh",
        "codename": "tinh_ninh_thuan",
        "phone_code": 259,
        "districts": [],
        "thumbnail": "https://raw.githubusercontent.com/ThaiHaiDev/StoreImage/main/province/ninhthuan.jpg"
    },
    
    {
        "name": "Tỉnh Kon Tum",
        "code": 62,
        "division_type": "tỉnh",
        "codename": "tinh_kon_tum",
        "phone_code": 260,
        "districts": [],
        "thumbnail": "https://raw.githubusercontent.com/ThaiHaiDev/StoreImage/main/province/kontum.jpg"
    },
    {
        "name": "Tỉnh Gia Lai",
        "code": 64,
        "division_type": "tỉnh",
        "codename": "tinh_gia_lai",
        "phone_code": 269,
        "districts": [],
        "thumbnail": "https://raw.githubusercontent.com/ThaiHaiDev/StoreImage/main/province/gialai.jpg"
    },
    {
        "name": "Tỉnh Đắk Lắk",
        "code": 66,
        "division_type": "tỉnh",
        "codename": "tinh_dak_lak",
        "phone_code": 262,
        "districts": [],
        "thumbnail": "https://raw.githubusercontent.com/ThaiHaiDev/StoreImage/main/province/daklak.jpg"
    },
    {
        "name": "Tỉnh Đắk Nông",
        "code": 67,
        "division_type": "tỉnh",
        "codename": "tinh_dak_nong",
        "phone_code": 261,
        "districts": [],
        "thumbnail": "https://raw.githubusercontent.com/ThaiHaiDev/StoreImage/main/province/daknong.jpg"
    },
    {
        "name": "Tỉnh Lâm Đồng",
        "code": 68,
        "division_type": "tỉnh",
        "codename": "tinh_lam_dong",
        "phone_code": 263,
        "districts": [],
        "thumbnail": "https://raw.githubusercontent.com/ThaiHaiDev/StoreImage/main/province/lamdong.jpg"
    },
    {
        "name": "Tỉnh Bình Phước",
        "code": 70,
        "division_type": "tỉnh",
        "codename": "tinh_binh_phuoc",
        "phone_code": 271,
        "districts": [],
        "thumbnail": "https://raw.githubusercontent.com/ThaiHaiDev/StoreImage/main/province/binhphuoc.jpg"
    },
    {
        "name": "Tỉnh Tây Ninh",
        "code": 72,
        "division_type": "tỉnh",
        "codename": "tinh_tay_ninh",
        "phone_code": 276,
        "districts": [],
        "thumbnail": "https://raw.githubusercontent.com/ThaiHaiDev/StoreImage/main/province/tayninh.jpg"
    },
    {
        "name": "Tỉnh Bình Dương",
        "code": 74,
        "division_type": "tỉnh",
        "codename": "tinh_binh_duong",
        "phone_code": 274,
        "districts": [],
        "thumbnail": "https://raw.githubusercontent.com/ThaiHaiDev/StoreImage/main/province/binhduong.jpg"
    },
    {
        "name": "Tỉnh Đồng Nai",
        "code": 75,
        "division_type": "tỉnh",
        "codename": "tinh_dong_nai",
        "phone_code": 251,
        "districts": [],
        "thumbnail": "https://raw.githubusercontent.com/ThaiHaiDev/StoreImage/main/province/dongnai.jpg"
    },
   
   
    {
        "name": "Tỉnh Long An",
        "code": 80,
        "division_type": "tỉnh",
        "codename": "tinh_long_an",
        "phone_code": 272,
        "districts": [],
        "thumbnail": "https://raw.githubusercontent.com/ThaiHaiDev/StoreImage/main/province/longan.jpg"
    },
    {
        "name": "Tỉnh Tiền Giang",
        "code": 82,
        "division_type": "tỉnh",
        "codename": "tinh_tien_giang",
        "phone_code": 273,
        "districts": [],
        "thumbnail": "https://raw.githubusercontent.com/ThaiHaiDev/StoreImage/main/province/tiengiang.jpg"
    },
    
    {
        "name": "Tỉnh Trà Vinh",
        "code": 84,
        "division_type": "tỉnh",
        "codename": "tinh_tra_vinh",
        "phone_code": 294,
        "districts": [],
        "thumbnail": "https://raw.githubusercontent.com/ThaiHaiDev/StoreImage/main/province/travinh.jpg"
    },
    {
        "name": "Tỉnh Vĩnh Long",
        "code": 86,
        "division_type": "tỉnh",
        "codename": "tinh_vinh_long",
        "phone_code": 270,
        "districts": [],
        "thumbnail": "https://raw.githubusercontent.com/ThaiHaiDev/StoreImage/main/province/vinhlong.jpg"
    },
    {
        "name": "Tỉnh Đồng Tháp",
        "code": 87,
        "division_type": "tỉnh",
        "codename": "tinh_dong_thap",
        "phone_code": 277,
        "districts": [],
        "thumbnail": "https://raw.githubusercontent.com/ThaiHaiDev/StoreImage/main/province/dongthap.jpg"
    },
    {
        "name": "Tỉnh An Giang",
        "code": 89,
        "division_type": "tỉnh",
        "codename": "tinh_an_giang",
        "phone_code": 296,
        "districts": [],
        "thumbnail": "angiang"
    },
    {
        "name": "Tỉnh Kiên Giang",
        "code": 91,
        "division_type": "tỉnh",
        "codename": "tinh_kien_giang",
        "phone_code": 297,
        "districts": [],
        "thumbnail": "https://raw.githubusercontent.com/ThaiHaiDev/StoreImage/main/province/kiengiang.jpg"
    },
    {
        "name": "Thành phố Cần Thơ",
        "code": 92,
        "division_type": "thành phố trung ương",
        "codename": "thanh_pho_can_tho",
        "phone_code": 292,
        "districts": [],
        "thumbnail": "https://raw.githubusercontent.com/ThaiHaiDev/StoreImage/main/province/cantho.jpg"
    },
    {
        "name": "Tỉnh Hậu Giang",
        "code": 93,
        "division_type": "tỉnh",
        "codename": "tinh_hau_giang",
        "phone_code": 293,
        "districts": [],
        "thumbnail": "https://raw.githubusercontent.com/ThaiHaiDev/StoreImage/main/province/haugiang.jpg"
    },
    {
        "name": "Tỉnh Sóc Trăng",
        "code": 94,
        "division_type": "tỉnh",
        "codename": "tinh_soc_trang",
        "phone_code": 299,
        "districts": [],
        "thumbnail": "https://raw.githubusercontent.com/ThaiHaiDev/StoreImage/main/province/soctrang.jpg"
    },
    {
        "name": "Tỉnh Bạc Liêu",
        "code": 95,
        "division_type": "tỉnh",
        "codename": "tinh_bac_lieu",
        "phone_code": 291,
        "districts": [],
        "thumbnail": "baclieu"
    },
    {
        "name": "Tỉnh Cà Mau",
        "code": 96,
        "division_type": "tỉnh",
        "codename": "tinh_ca_mau",
        "phone_code": 290,
        "districts": [],
        "thumbnail": "https://raw.githubusercontent.com/ThaiHaiDev/StoreImage/main/province/camau.jpg"
    }
]